HTV-X1                  
1 66174U 25241A   26073.34423285  .00013198  00000+0  56794-3 0  9992
2 66174  51.6357  50.7100 0005732 187.3443 172.7451 15.22910005 21660
SZ-21 MODULE            
1 66515U 25246C   26079.19410922  .00026007  00000+0  21818-3 0  9991
2 66515  41.4734 138.6579 0000376 257.1443 102.9357 15.69318212 19723
SHENZHOU-22             
1 66645U 25272A   26079.59211288  .00017890  00000+0  20859-3 0  9996
2 66645  41.4664 141.7960 0005638 341.7172  18.3464 15.61215573279313
SOYUZ-MS 28             
1 66664U 25275A   26079.87218434  .00009590  00000+0  18573-3 0  9999
2 66664  51.6346  17.0785 0006366 213.2716 146.7873 15.48402839558105
DUPLEX                  
1 66906U 98067XS  26079.24354681  .00021800  00000+0  30375-3 0  9995
2 66906  51.6306  16.6351 0002978 156.4039 203.7090 15.56853092 16772
ISS OBJECT XT           
1 66907U 98067XT  26079.52331039  .00172561  00000+0  12285-2 0  9999
2 66907  51.6258  10.2274 0005223 150.1907 209.9390 15.72768036 16888
ISS OBJECT XU           
1 66908U 98067XU  26079.52056677  .00170482  00000+0  12070-2 0  9994
2 66908  51.6251  10.2051 0005434 149.9319 210.1992 15.72903256 16889
SILVERSAT               
1 66909U 98067XV  26079.18151254  .00178475  00000+0  10695-2 0  9995
2 66909  51.6236  10.9348 0005872 151.9613 208.1704 15.76718316 16844
ISS OBJECT XW           
1 66910U 98067XW  26079.20605164  .00118472  00000+0  89059-3 0  9996
2 66910  51.6255  11.8505 0005807 150.0745 210.0586 15.71670531 16836
ISS OBJECT XX           
1 66911U 98067XX  26079.78497679  .00328635  00000+0  15489-2 0  9999
2 66911  51.6214   6.6859 0007614 159.8268 200.3037 15.81589950 16941
ISS OBJECT XY           
1 66912U 98067XY  26079.18337813  .00070580  00000+0  68564-3 0  9993
2 66912  51.6283  13.9735 0003834 151.9435 208.1768 15.65652756 16798
KNACKSAT-2              
1 67683U 98067XZ  26079.86500276  .00036026  00000+0  57732-3 0  9991
2 67683  51.6325  16.2834 0009736 225.5221 134.4974 15.52688255  6524
